<?xml version="1.0" encoding="UTF-8"?>
<ndm xmlns:xsi="http://www.w3.org/2001/XMLSchema-instance" xsi:noNamespaceSchemaLocation="https://sanaregistry.org/r/ndmxml_unqualified/ndmxml-2.0.0-master-2.0.xsd">
<omm id="CCSDS_OMM_VERS" version="2.0">
<header><CREATION_DATE/><ORIGINATOR/></header><body><segment><metadata><OBJECT_NAME>KUIPER-00053</OBJECT_NAME><OBJECT_ID>2025-134P</OBJECT_ID><CENTER_NAME>EARTH</CENTER_NAME><REF_FRAME>TEME</REF_FRAME><TIME_SYSTEM>UTC</TIME_SYSTEM><MEAN_ELEMENT_THEORY>SGP4</MEAN_ELEMENT_THEORY></metadata><data><meanElements><EPOCH>2025-08-04T00:27:28.638144</EPOCH><MEAN_MOTION>15.36798058</MEAN_MOTION><ECCENTRICITY>.0001924</ECCENTRICITY><INCLINATION>51.8782</INCLINATION><RA_OF_ASC_NODE>130.3107</RA_OF_ASC_NODE><ARG_OF_PERICENTER>238.5922</ARG_OF_PERICENTER><MEAN_ANOMALY>121.4877</MEAN_ANOMALY></meanElements><tleParameters><EPHEMERIS_TYPE>0</EPHEMERIS_TYPE><CLASSIFICATION_TYPE>U</CLASSIFICATION_TYPE><NORAD_CAT_ID>64513</NORAD_CAT_ID><ELEMENT_SET_NO>999</ELEMENT_SET_NO><REV_AT_EPOCH>717</REV_AT_EPOCH><BSTAR>.12412E-2</BSTAR><MEAN_MOTION_DOT>.45213E-3</MEAN_MOTION_DOT><MEAN_MOTION_DDOT>0</MEAN_MOTION_DDOT></tleParameters></data></segment></body></omm>
<omm id="CCSDS_OMM_VERS" version="2.0">
<header><CREATION_DATE/><ORIGINATOR/></header><body><segment><metadata><OBJECT_NAME>KUIPER-00054</OBJECT_NAME><OBJECT_ID>2025-134Q</OBJECT_ID><CENTER_NAME>EARTH</CENTER_NAME><REF_FRAME>TEME</REF_FRAME><TIME_SYSTEM>UTC</TIME_SYSTEM><MEAN_ELEMENT_THEORY>SGP4</MEAN_ELEMENT_THEORY></metadata><data><meanElements><EPOCH>2025-08-04T03:42:38.943360</EPOCH><MEAN_MOTION>15.36488138</MEAN_MOTION><ECCENTRICITY>.0002758</ECCENTRICITY><INCLINATION>51.8770</INCLINATION><RA_OF_ASC_NODE>129.7157</RA_OF_ASC_NODE><ARG_OF_PERICENTER>240.8564</ARG_OF_PERICENTER><MEAN_ANOMALY>119.2147</MEAN_ANOMALY></meanElements><tleParameters><EPHEMERIS_TYPE>0</EPHEMERIS_TYPE><CLASSIFICATION_TYPE>U</CLASSIFICATION_TYPE><NORAD_CAT_ID>64514</NORAD_CAT_ID><ELEMENT_SET_NO>999</ELEMENT_SET_NO><REV_AT_EPOCH>759</REV_AT_EPOCH><BSTAR>.8174E-3</BSTAR><MEAN_MOTION_DOT>.29284E-3</MEAN_MOTION_DOT><MEAN_MOTION_DDOT>0</MEAN_MOTION_DDOT></tleParameters></data></segment></body></omm>
<omm id="CCSDS_OMM_VERS" version="2.0">
<header><CREATION_DATE/><ORIGINATOR/></header><body><segment><metadata><OBJECT_NAME>KUIPER-00055</OBJECT_NAME><OBJECT_ID>2025-134R</OBJECT_ID><CENTER_NAME>EARTH</CENTER_NAME><REF_FRAME>TEME</REF_FRAME><TIME_SYSTEM>UTC</TIME_SYSTEM><MEAN_ELEMENT_THEORY>SGP4</MEAN_ELEMENT_THEORY></metadata><data><meanElements><EPOCH>2025-08-03T11:41:26.833632</EPOCH><MEAN_MOTION>15.37167934</MEAN_MOTION><ECCENTRICITY>.0000744</ECCENTRICITY><INCLINATION>51.8780</INCLINATION><RA_OF_ASC_NODE>132.7479</RA_OF_ASC_NODE><ARG_OF_PERICENTER>160.6192</ARG_OF_PERICENTER><MEAN_ANOMALY>199.4823</MEAN_ANOMALY></meanElements><tleParameters><EPHEMERIS_TYPE>0</EPHEMERIS_TYPE><CLASSIFICATION_TYPE>U</CLASSIFICATION_TYPE><NORAD_CAT_ID>64515</NORAD_CAT_ID><ELEMENT_SET_NO>999</ELEMENT_SET_NO><REV_AT_EPOCH>755</REV_AT_EPOCH><BSTAR>.53376E-3</BSTAR><MEAN_MOTION_DOT>.19388E-3</MEAN_MOTION_DOT><MEAN_MOTION_DDOT>0</MEAN_MOTION_DDOT></tleParameters></data></segment></body></omm>
<omm id="CCSDS_OMM_VERS" version="2.0">
<header><CREATION_DATE/><ORIGINATOR/></header><body><segment><metadata><OBJECT_NAME>KUIPER-00056</OBJECT_NAME><OBJECT_ID>2025-134S</OBJECT_ID><CENTER_NAME>EARTH</CENTER_NAME><REF_FRAME>TEME</REF_FRAME><TIME_SYSTEM>UTC</TIME_SYSTEM><MEAN_ELEMENT_THEORY>SGP4</MEAN_ELEMENT_THEORY></metadata><data><meanElements><EPOCH>2025-08-04T06:00:00.999648</EPOCH><MEAN_MOTION>15.36200928</MEAN_MOTION><ECCENTRICITY>.0002867</ECCENTRICITY><INCLINATION>51.8742</INCLINATION><RA_OF_ASC_NODE>129.3231</RA_OF_ASC_NODE><ARG_OF_PERICENTER>246.3409</ARG_OF_PERICENTER><MEAN_ANOMALY>247.5881</MEAN_ANOMALY></meanElements><tleParameters><EPHEMERIS_TYPE>0</EPHEMERIS_TYPE><CLASSIFICATION_TYPE>U</CLASSIFICATION_TYPE><NORAD_CAT_ID>64516</NORAD_CAT_ID><ELEMENT_SET_NO>999</ELEMENT_SET_NO><REV_AT_EPOCH>720</REV_AT_EPOCH><BSTAR>.1759E-2</BSTAR><MEAN_MOTION_DOT>.63162E-3</MEAN_MOTION_DOT><MEAN_MOTION_DDOT>0</MEAN_MOTION_DDOT></tleParameters></data></segment></body></omm>
<omm id="CCSDS_OMM_VERS" version="2.0">
<header><CREATION_DATE/><ORIGINATOR/></header><body><segment><metadata><OBJECT_NAME>KUIPER-00057</OBJECT_NAME><OBJECT_ID>2025-134T</OBJECT_ID><CENTER_NAME>EARTH</CENTER_NAME><REF_FRAME>TEME</REF_FRAME><TIME_SYSTEM>UTC</TIME_SYSTEM><MEAN_ELEMENT_THEORY>SGP4</MEAN_ELEMENT_THEORY></metadata><data><meanElements><EPOCH>2025-08-04T01:18:03.215232</EPOCH><MEAN_MOTION>15.35061898</MEAN_MOTION><ECCENTRICITY>.0006516</ECCENTRICITY><INCLINATION>51.8689</INCLINATION><RA_OF_ASC_NODE>130.5193</RA_OF_ASC_NODE><ARG_OF_PERICENTER>254.8196</ARG_OF_PERICENTER><MEAN_ANOMALY>105.2069</MEAN_ANOMALY></meanElements><tleParameters><EPHEMERIS_TYPE>0</EPHEMERIS_TYPE><CLASSIFICATION_TYPE>U</CLASSIFICATION_TYPE><NORAD_CAT_ID>64517</NORAD_CAT_ID><ELEMENT_SET_NO>999</ELEMENT_SET_NO><REV_AT_EPOCH>728</REV_AT_EPOCH><BSTAR>-.12607E-3</BSTAR><MEAN_MOTION_DOT>-.4739E-4</MEAN_MOTION_DOT><MEAN_MOTION_DDOT>0</MEAN_MOTION_DDOT></tleParameters></data></segment></body></omm>
<omm id="CCSDS_OMM_VERS" version="2.0">
<header><CREATION_DATE/><ORIGINATOR/></header><body><segment><metadata><OBJECT_NAME>KUIPER-00058</OBJECT_NAME><OBJECT_ID>2025-134U</OBJECT_ID><CENTER_NAME>EARTH</CENTER_NAME><REF_FRAME>TEME</REF_FRAME><TIME_SYSTEM>UTC</TIME_SYSTEM><MEAN_ELEMENT_THEORY>SGP4</MEAN_ELEMENT_THEORY></metadata><data><meanElements><EPOCH>2025-08-04T00:57:21.444192</EPOCH><MEAN_MOTION>15.35992325</MEAN_MOTION><ECCENTRICITY>.000428</ECCENTRICITY><INCLINATION>51.8719</INCLINATION><RA_OF_ASC_NODE>130.4343</RA_OF_ASC_NODE><ARG_OF_PERICENTER>252.3568</ARG_OF_PERICENTER><MEAN_ANOMALY>107.6951</MEAN_ANOMALY></meanElements><tleParameters><EPHEMERIS_TYPE>0</EPHEMERIS_TYPE><CLASSIFICATION_TYPE>U</CLASSIFICATION_TYPE><NORAD_CAT_ID>64518</NORAD_CAT_ID><ELEMENT_SET_NO>999</ELEMENT_SET_NO><REV_AT_EPOCH>717</REV_AT_EPOCH><BSTAR>.81173E-3</BSTAR><MEAN_MOTION_DOT>.28615E-3</MEAN_MOTION_DOT><MEAN_MOTION_DDOT>0</MEAN_MOTION_DDOT></tleParameters></data></segment></body></omm>
<omm id="CCSDS_OMM_VERS" version="2.0">
<header><CREATION_DATE/><ORIGINATOR/></header><body><segment><metadata><OBJECT_NAME>KUIPER-00059</OBJECT_NAME><OBJECT_ID>2025-134V</OBJECT_ID><CENTER_NAME>EARTH</CENTER_NAME><REF_FRAME>TEME</REF_FRAME><TIME_SYSTEM>UTC</TIME_SYSTEM><MEAN_ELEMENT_THEORY>SGP4</MEAN_ELEMENT_THEORY></metadata><data><meanElements><EPOCH>2025-08-03T11:44:22.763040</EPOCH><MEAN_MOTION>15.37096224</MEAN_MOTION><ECCENTRICITY>.0001487</ECCENTRICITY><INCLINATION>51.8768</INCLINATION><RA_OF_ASC_NODE>132.7583</RA_OF_ASC_NODE><ARG_OF_PERICENTER>182.0630</ARG_OF_PERICENTER><MEAN_ANOMALY>178.0351</MEAN_ANOMALY></meanElements><tleParameters><EPHEMERIS_TYPE>0</EPHEMERIS_TYPE><CLASSIFICATION_TYPE>U</CLASSIFICATION_TYPE><NORAD_CAT_ID>64519</NORAD_CAT_ID><ELEMENT_SET_NO>999</ELEMENT_SET_NO><REV_AT_EPOCH>755</REV_AT_EPOCH><BSTAR>.82637E-3</BSTAR><MEAN_MOTION_DOT>.30204E-3</MEAN_MOTION_DOT><MEAN_MOTION_DDOT>0</MEAN_MOTION_DDOT></tleParameters></data></segment></body></omm>
<omm id="CCSDS_OMM_VERS" version="2.0">
<header><CREATION_DATE/><ORIGINATOR/></header><body><segment><metadata><OBJECT_NAME>KUIPER-00060</OBJECT_NAME><OBJECT_ID>2025-134W</OBJECT_ID><CENTER_NAME>EARTH</CENTER_NAME><REF_FRAME>TEME</REF_FRAME><TIME_SYSTEM>UTC</TIME_SYSTEM><MEAN_ELEMENT_THEORY>SGP4</MEAN_ELEMENT_THEORY></metadata><data><meanElements><EPOCH>2025-08-03T11:52:42.475584</EPOCH><MEAN_MOTION>15.36955588</MEAN_MOTION><ECCENTRICITY>.0001887</ECCENTRICITY><INCLINATION>51.8773</INCLINATION><RA_OF_ASC_NODE>132.7998</RA_OF_ASC_NODE><ARG_OF_PERICENTER>200.6071</ARG_OF_PERICENTER><MEAN_ANOMALY>159.4840</MEAN_ANOMALY></meanElements><tleParameters><EPHEMERIS_TYPE>0</EPHEMERIS_TYPE><CLASSIFICATION_TYPE>U</CLASSIFICATION_TYPE><NORAD_CAT_ID>64520</NORAD_CAT_ID><ELEMENT_SET_NO>999</ELEMENT_SET_NO><REV_AT_EPOCH>754</REV_AT_EPOCH><BSTAR>.7438E-3</BSTAR><MEAN_MOTION_DOT>.27011E-3</MEAN_MOTION_DOT><MEAN_MOTION_DDOT>0</MEAN_MOTION_DDOT></tleParameters></data></segment></body></omm>

</ndm>
